{
  "links" : {
    "next" : "https://api.nasa.gov/neo/rest/v1/feed?start_date=2010-06-23&end_date=2010-06-23&detailed=true&api_key=t0TVs3DtDT2H8Oy2Zy8m2eVrNsAVKAexjcZXUckd",
    "prev" : "https://api.nasa.gov/neo/rest/v1/feed?start_date=2010-06-21&end_date=2010-06-21&detailed=true&api_key=t0TVs3DtDT2H8Oy2Zy8m2eVrNsAVKAexjcZXUckd",
    "self" : "https://api.nasa.gov/neo/rest/v1/feed?start_date=2010-06-22&end_date=2010-06-22&detailed=true&api_key=t0TVs3DtDT2H8Oy2Zy8m2eVrNsAVKAexjcZXUckd"
  },
  "element_count" : 7,
  "near_earth_objects" : {
    "2010-06-22" : [ {
      "links" : {
        "self" : "https://api.nasa.gov/neo/rest/v1/neo/3656923?api_key=t0TVs3DtDT2H8Oy2Zy8m2eVrNsAVKAexjcZXUckd"
      },
      "neo_reference_id" : "3656923",
      "name" : "(2014 BP8)",
      "nasa_jpl_url" : "http://ssd.jpl.nasa.gov/sbdb.cgi?sstr=3656923",
      "absolute_magnitude_h" : 27.3,
      "estimated_diameter" : {
        "kilometers" : {
          "estimated_diameter_min" : 0.0092162655,
          "estimated_diameter_max" : 0.0206081961
        },
        "meters" : {
          "estimated_diameter_min" : 9.216265485,
          "estimated_diameter_max" : 20.6081961232
        },
        "miles" : {
          "estimated_diameter_min" : 0.0057267201,
          "estimated_diameter_max" : 0.0128053354
        },
        "feet" : {
          "estimated_diameter_min" : 30.2370924539,
          "estimated_diameter_max" : 67.6121941689
        }
      },
      "is_potentially_hazardous_asteroid" : false,
      "close_approach_data" : [ {
        "close_approach_date" : "2010-06-22",
        "epoch_date_close_approach" : 1277190000000,
        "relative_velocity" : {
          "kilometers_per_second" : "14.5095603903",
          "kilometers_per_hour" : "52234.4174051002",
          "miles_per_hour" : "32456.4356370746"
        },
        "miss_distance" : {
          "astronomical" : "0.312052321",
          "lunar" : "121.3883514404",
          "kilometers" : "46682360",
          "miles" : "29007074"
        },
        "orbiting_body" : "Earth"
      } ],
      "orbital_data" : {
        "orbit_id" : "9",
        "orbit_determination_date" : "2017-04-06 08:42:47",
        "orbit_uncertainty" : "7",
        "minimum_orbit_intersection" : ".0109704",
        "jupiter_tisserand_invariant" : "5.266",
        "epoch_osculation" : "2458000.5",
        "eccentricity" : ".2363833734002595",
        "semi_major_axis" : "1.193139621362208",
        "inclination" : "13.44277210875324",
        "ascending_node_longitude" : "304.3424830170854",
        "orbital_period" : "476.0311018849124",
        "perihelion_distance" : ".9111012527271007",
        "perihelion_argument" : "236.618185217647",
        "aphelion_distance" : "1.475177989997315",
        "perihelion_time" : "2458158.126904821157",
        "mean_anomaly" : "240.7941634256164",
        "mean_motion" : ".7562531073590132",
        "equinox" : "J2000"
      }
    }, {
      "links" : {
        "self" : "https://api.nasa.gov/neo/rest/v1/neo/3672899?api_key=t0TVs3DtDT2H8Oy2Zy8m2eVrNsAVKAexjcZXUckd"
      },
      "neo_reference_id" : "3672899",
      "name" : "(2014 KQ76)",
      "nasa_jpl_url" : "http://ssd.jpl.nasa.gov/sbdb.cgi?sstr=3672899",
      "absolute_magnitude_h" : 21.6,
      "estimated_diameter" : {
        "kilometers" : {
          "estimated_diameter_min" : 0.1272198785,
          "estimated_diameter_max" : 0.2844722965
        },
        "meters" : {
          "estimated_diameter_min" : 127.2198785394,
          "estimated_diameter_max" : 284.4722965033
        },
        "miles" : {
          "estimated_diameter_min" : 0.0790507431,
          "estimated_diameter_max" : 0.1767628354
        },
        "feet" : {
          "estimated_diameter_min" : 417.3880663071,
          "estimated_diameter_max" : 933.3080892598
        }
      },
      "is_potentially_hazardous_asteroid" : true,
      "close_approach_data" : [ {
        "close_approach_date" : "2010-06-22",
        "epoch_date_close_approach" : 1277190000000,
        "relative_velocity" : {
          "kilometers_per_second" : "10.5350570257",
          "kilometers_per_hour" : "37926.2052923645",
          "miles_per_hour" : "23565.8690606917"
        },
        "miss_distance" : {
          "astronomical" : "0.4234169599",
          "lunar" : "164.709197998",
          "kilometers" : "63342280",
          "miles" : "39359068"
        },
        "orbiting_body" : "Earth"
      } ],
      "orbital_data" : {
        "orbit_id" : "24",
        "orbit_determination_date" : "2016-06-08 06:17:52",
        "orbit_uncertainty" : "2",
        "minimum_orbit_intersection" : ".0409175",
        "jupiter_tisserand_invariant" : "5.959",
        "epoch_osculation" : "2457600.5",
        "eccentricity" : ".4233135009763423",
        "semi_major_axis" : "1.00746639767388",
        "inclination" : "4.773717282978413",
        "ascending_node_longitude" : "128.0520480970782",
        "orbital_period" : "369.3552544889754",
        "perihelion_distance" : ".5809922697585259",
        "perihelion_argument" : "324.7548504927909",
        "aphelion_distance" : "1.433940525589234",
        "perihelion_time" : "2457777.420801445288",
        "mean_anomaly" : "187.5603561984664",
        "mean_motion" : ".9746713919044717",
        "equinox" : "J2000"
      }
    }, {
      "links" : {
        "self" : "https://api.nasa.gov/neo/rest/v1/neo/2468910?api_key=t0TVs3DtDT2H8Oy2Zy8m2eVrNsAVKAexjcZXUckd"
      },
      "neo_reference_id" : "2468910",
      "name" : "468910 (2014 KQ76)",
      "nasa_jpl_url" : "http://ssd.jpl.nasa.gov/sbdb.cgi?sstr=2468910",
      "absolute_magnitude_h" : 21.5,
      "estimated_diameter" : {
        "kilometers" : {
          "estimated_diameter_min" : 0.1332155667,
          "estimated_diameter_max" : 0.2978790628
        },
        "meters" : {
          "estimated_diameter_min" : 133.2155666981,
          "estimated_diameter_max" : 297.8790627982
        },
        "miles" : {
          "estimated_diameter_min" : 0.0827762899,
          "estimated_diameter_max" : 0.1850934111
        },
        "feet" : {
          "estimated_diameter_min" : 437.0589598459,
          "estimated_diameter_max" : 977.2935443908
        }
      },
      "is_potentially_hazardous_asteroid" : true,
      "close_approach_data" : [ {
        "close_approach_date" : "2010-06-22",
        "epoch_date_close_approach" : 1277190000000,
        "relative_velocity" : {
          "kilometers_per_second" : "10.5350284452",
          "kilometers_per_hour" : "37926.1024028122",
          "miles_per_hour" : "23565.8051291251"
        },
        "miss_distance" : {
          "astronomical" : "0.4234156414",
          "lunar" : "164.7086791992",
          "kilometers" : "63342076",
          "miles" : "39358944"
        },
        "orbiting_body" : "Earth"
      } ],
      "orbital_data" : {
        "orbit_id" : "28",
        "orbit_determination_date" : "2017-05-23 06:19:48",
        "orbit_uncertainty" : "1",
        "minimum_orbit_intersection" : ".0409294",
        "jupiter_tisserand_invariant" : "5.959",
        "epoch_osculation" : "2458000.5",
        "eccentricity" : ".4233477017426433",
        "semi_major_axis" : "1.007452536157145",
        "inclination" : "4.774411821602036",
        "ascending_node_longitude" : "128.0258111147024",
        "orbital_period" : "369.3476316941474",
        "perihelion_distance" : ".5809498203602207",
        "perihelion_argument" : "324.7389768674062",
        "aphelion_distance" : "1.43395525195407",
        "perihelion_time" : "2458146.754300941429",
        "mean_anomaly" : "217.4471749083402",
        "mean_motion" : ".974691507696229",
        "equinox" : "J2000"
      }
    } ]
  }
}